NORAD_CAT_ID,OBJECT_NAME,OBJECT_TYPE,EPOCH,MEAN_MOTION,ECCENTRICITY,INCLINATION,RA_OF_ASC_NODE,ARG_OF_PERICENTER,MEAN_ANOMALY,BSTAR,MEAN_MOTION_DOT,MEAN_MOTION_DDOT,TLE_LINE0,TLE_LINE1,TLE_LINE2,SEMIMAJOR_AXIS,PERIOD,APOGEE,PERIGEE,DECAYED
55313.0,STARLINK-5313,PAYLOAD,2023-05-21 19:56:50,15.69922571,0.0002979,70.0018,85.0592,260.2872,99.7987,7.1583e-07,-1.26e-06,0.0,0 STARLINK-5313,1 55313U 23010AW  23141.83113610 -.00000126  00000-0  71583-6 0  9997,2 55313  70.0018  85.0592 0002979 260.2872  99.7987 15.69922571 20893,6737.256,91.724,361.128,357.113,0.0
55313.0,STARLINK-5313,PAYLOAD,2023-05-21 23:00:20,15.69925565,0.0003129,70.0014,84.7003,262.2341,97.85,9.2166e-06,8.96e-06,0.0,0 STARLINK-5313,1 55313U 23010AW  23141.95856916  .00000896  00000-0  92166-5 0  9995,2 55313  70.0014  84.7003 0003129 262.2341  97.8500 15.69925565 19729,6737.247,91.724,361.22,357.004,0.0
55313.0,STARLINK-5313,PAYLOAD,2023-05-22 05:07:20,15.69936829,0.0002534,70.0021,83.9845,246.5852,113.5077,2.7265e-05,3.069e-05,0.0,0 STARLINK-5313,1 55313U 23010AW  23142.21342987  .00003069  00000-0  27265-4 0  9995,2 55313  70.0021  83.9845 0002534 246.5852 113.5077 15.69936829 19767,6737.215,91.723,360.787,357.373,0.0
55313.0,STARLINK-5313,PAYLOAD,2023-05-22 18:53:06,15.69927641,0.0002542,70.0036,82.375,219.1075,140.9937,3.8346e-05,4.401e-05,0.0,0 STARLINK-5313,1 55313U 23010AW  23142.78688357  .00004401  00000-0  38346-4 0  9994,2 55313  70.0036  82.3750 0002542 219.1075 140.9937 15.69927641 19854,6737.241,91.724,360.819,357.393,0.0
55313.0,STARLINK-5313,PAYLOAD,2023-05-22 23:28:23,15.69897975,0.0002552,70.0017,81.834,234.0525,126.0434,-6.9761e-06,-1.05e-05,0.0,0 STARLINK-5313,1 55313U 23010AW  23142.97804841 -.00001050  00000-0 -69761-5 0  9998,2 55313  70.0017  81.8340 0002552 234.0525 126.0434 15.69897975 19885,6737.326,91.726,360.91,357.472,0.0
55313.0,STARLINK-5313,PAYLOAD,2023-05-23 05:35:22,15.69920824,0.0002598,70.0026,81.1195,237.1188,122.9758,-4.0016e-05,-5.02e-05,0.0,0 STARLINK-5313,1 55313U 23010AW  23143.23290452 -.00005020  00000-0 -40016-4 0  9997,2 55313  70.0026  81.1195 0002598 237.1188 122.9758 15.69920824 19924,6737.261,91.724,360.876,357.375,0.0
55313.0,STARLINK-5313,PAYLOAD,2023-05-23 22:24:39,15.6992706,0.0003246,70.0015,79.1476,255.1386,104.945,3.7801e-06,2.42e-06,0.0,0 STARLINK-5313,1 55313U 23010AW  23143.93378677  .00000242  00000-0  37801-5 0  9998,2 55313  70.0015  79.1476 0003246 255.1386 104.9450 15.69927060 20034,6737.243,91.724,361.295,356.921,0.0
55313.0,STARLINK-5313,PAYLOAD,2023-05-24 04:31:38,15.69944457,0.0003399,70.001,78.4314,238.1733,121.9132,-2.7957e-05,-3.576e-05,0.0,0 STARLINK-5313,1 55313U 23010AW  23144.18864391 -.00003576  00000-0 -27957-4 0  9994,2 55313  70.0010  78.4314 0003399 238.1733 121.9132 15.69944457 20077,6737.193,91.723,361.348,356.768,0.0
55313.0,STARLINK-5313,PAYLOAD,2023-05-25 21:48:55,15.69973954,0.0004939,70.0014,73.5937,267.8813,92.1818,0.00013682,0.0001631,0.0,0 STARLINK-5313,1 55313U 23010AW  23145.90898057  .00016310  00000-0  13682-3 0  9998,2 55313  70.0014  73.5937 0004939 267.8813  92.1818 15.69973954 21533,6737.109,91.721,362.301,355.646,0.0
55313.0,STARLINK-5313,PAYLOAD,2023-05-26 03:55:56,15.69964074,0.0004515,70.0012,72.8768,267.5754,92.4924,0.00010615,0.00012594,0.0,0 STARLINK-5313,1 55313U 23010AW  23146.16385106  .00012594  00000-0  10615-3 0  9996,2 55313  70.0012  72.8768 0004515 267.5754  92.4924 15.69964074 20382,6737.137,91.722,362.044,355.96,0.0
55313.0,STARLINK-5313,PAYLOAD,2023-05-26 22:16:57,15.69977487,0.0004953,70.0011,70.7272,263.3692,96.694,-0.00013582,-0.00016555,0.0,0 STARLINK-5313,1 55313U 23010AW  23146.92844333 -.00016555  00000-0 -13582-3 0  9991,2 55313  70.0011  70.7272 0004953 263.3692  96.6940 15.69977487 21690,6737.098,91.721,362.3,355.627,0.0
55313.0,STARLINK-5313,PAYLOAD,2023-05-27 04:24:00,15.69927938,0.0003788,70.0,70.0091,267.8084,92.2678,9.1927e-06,8.93e-06,0.0,0 STARLINK-5313,1 55313U 23010AW  23147.18334307  .00000893  00000-0  91927-5 0  9992,2 55313  70.0000  70.0091 0003788 267.8084  92.2678 15.69927938 20548,6737.24,91.724,361.657,356.553,0.0
55313.0,STARLINK-5313,PAYLOAD,2023-05-27 21:13:16,15.69925354,0.000355,70.0005,68.0385,267.2962,92.7827,9.1701e-06,8.9e-06,0.0,0 STARLINK-5313,1 55313U 23010AW  23147.88422362  .00000890  00000-0  91701-5 0  9995,2 55313  70.0005  68.0385 0003550 267.2962  92.7827 15.69925354 21847,6737.248,91.724,361.504,356.721,0.0
55313.0,STARLINK-5313,PAYLOAD,2023-05-28 04:52:02,15.69928179,0.0003305,70.0005,67.1429,266.8289,93.2529,1.1645e-05,1.188e-05,0.0,0 STARLINK-5313,1 55313U 23010AW  23148.20280583  .00001188  00000-0  11645-4 0  9998,2 55313  70.0005  67.1429 0003305 266.8289  93.2529 15.69928179 20708,6737.239,91.724,361.331,356.878,0.0
55313.0,STARLINK-5313,PAYLOAD,2023-05-28 21:41:18,15.69924161,0.0003276,70.0007,65.1726,265.7728,94.3093,2.0875e-05,2.298e-05,0.0,0 STARLINK-5313,1 55313U 23010AW  23148.90369198  .00002298  00000-0  20875-4 0  9993,2 55313  70.0007  65.1726 0003276 265.7728  94.3093 15.69924161 22001,6737.251,91.724,361.323,356.909,0.0
55313.0,STARLINK-5313,PAYLOAD,2023-05-29 03:48:19,15.69924897,0.0003579,69.9997,64.4557,263.6538,96.425,1.3458e-05,1.406e-05,0.0,0 STARLINK-5313,1 55313U 23010AW  23149.15855757  .00001406  00000-0  13458-4 0  9991,2 55313  69.9997  64.4557 0003579 263.6538  96.4250 15.69924897 20857,6737.249,91.724,361.525,356.703,0.0
55313.0,STARLINK-5313,PAYLOAD,2023-05-29 17:34:05,15.69919585,0.0003429,69.9999,62.8424,262.6118,97.4688,1.754e-06,-2e-08,0.0,0 STARLINK-5313,1 55313U 23010AW  23149.73201194 -.00000002  00000-0  17540-5 0  9994,2 55313  69.9999  62.8424 0003429 262.6118  97.4688 15.69919585 20945,6737.264,91.724,361.439,356.819,0.0
55313.0,STARLINK-5313,PAYLOAD,2023-05-29 20:37:35,15.69928444,0.0003264,69.9985,62.4851,263.1274,96.9551,5.5355e-06,4.53e-06,0.0,0 STARLINK-5313,1 55313U 23010AW  23149.85944221  .00000453  00000-0  55355-5 0  9997,2 55313  69.9985  62.4851 0003264 263.1274  96.9551 15.69928444 22158,6737.239,91.724,361.303,356.905,0.0
55313.0,STARLINK-5313,PAYLOAD,2023-05-30 04:16:21,15.69921168,0.0003233,69.9991,61.5871,269.3846,90.6979,3.7706e-05,4.323e-05,0.0,0 STARLINK-5313,1 55313U 23010AW  23150.17802753  .00004323  00000-0  37706-4 0  9996,2 55313  69.9991  61.5871 0003233 269.3846  90.6979 15.69921168 22203,6737.26,91.724,361.303,356.946,0.0
55313.0,STARLINK-5313,PAYLOAD,2023-05-30 21:05:37,15.69922904,0.0003625,69.9994,59.6179,264.4385,95.6397,9.2383e-06,8.98e-06,0.0,0 STARLINK-5313,1 55313U 23010AW  23150.87891069  .00000898  00000-0  92383-5 0  9997,2 55313  69.9994  59.6179 0003625 264.4385  95.6397 15.69922904 22314,6737.255,91.724,361.562,356.677,0.0
55313.0,STARLINK-5313,PAYLOAD,2023-05-31 01:40:52,15.69933373,0.000339,70.0004,59.081,259.9706,100.1107,2.5502e-05,2.856e-05,0.0,0 STARLINK-5313,1 55313U 23010AW  23151.07005559  .00002856  00000-0  25502-4 0  9995,2 55313  70.0004  59.0810 0003390 259.9706 100.1107 15.69933373 21154,6737.225,91.724,361.374,356.806,0.0
55313.0,STARLINK-5313,PAYLOAD,2023-05-31 03:12:38,15.69932484,0.000358,70.0007,58.9027,262.9569,97.1219,2.4318e-05,2.713e-05,0.0,0 STARLINK-5313,1 55313U 23010AW  23151.13377315  .00002713  00000-0  24318-4 0  9990,2 55313  70.0007  58.9027 0003580 262.9569  97.1219 15.69932484 22351,6737.227,91.724,361.504,356.68,0.0
55313.0,STARLINK-5313,PAYLOAD,2023-05-31 18:30:09,15.69926005,0.0003313,70.0024,57.109,256.1766,103.9062,-1.3182e-05,-1.797e-05,0.0,0 STARLINK-5313,1 55313U 23010AW  23151.77094394 -.00001797  00000-0 -13182-4 0  9993,2 55313  70.0024  57.1090 0003313 256.1766 103.9062 15.69926005 21262,6737.246,91.724,361.343,356.879,0.0
55313.0,STARLINK-5313,PAYLOAD,2023-05-31 20:01:54,15.69919139,0.0004015,69.9989,56.9287,268.5143,91.5593,-1.3916e-05,-1.886e-05,0.0,0 STARLINK-5313,1 55313U 23010AW  23151.83466398 -.00001886  00000-0 -13916-4 0  9991,2 55313  69.9989  56.9287 0004015 268.5143  91.5593 15.69919139 22464,6737.265,91.724,361.835,356.425,0.0
55313.0,STARLINK-5313,PAYLOAD,2023-06-01 03:40:40,15.69925495,0.000315,70.0014,56.0369,253.9621,106.1228,7.5419e-06,6.94e-06,0.0,0 STARLINK-5313,1 55313U 23010AW  23152.15324655  .00000694  00000-0  75419-5 0  9997,2 55313  70.0014  56.0369 0003150 253.9621 106.1228 15.69925495 22512,6737.247,91.724,361.234,356.99,0.0
55313.0,STARLINK-5313,PAYLOAD,2023-06-02 02:36:57,15.69929752,0.0003175,70.0009,53.3498,262.332,97.7515,9.0532e-06,8.76e-06,0.0,0 STARLINK-5313,1 55313U 23010AW  23153.10899454  .00000876  00000-0  90532-5 0  9992,2 55313  70.0009  53.3498 0003175 262.3320  97.7515 15.69929752 21474,6737.235,91.724,361.239,356.961,0.0
55313.0,STARLINK-5313,PAYLOAD,2023-06-02 17:54:28,15.69918838,0.0003159,70.0013,51.5576,256.8531,103.2312,2.6675e-05,2.995e-05,0.0,0 STARLINK-5313,1 55313U 23010AW  23153.74616694  .00002995  00000-0  26675-4 0  9995,2 55313  70.0013  51.5576 0003159 256.8531 103.2312 15.69918838 21572,6737.266,91.724,361.26,357.003,0.0
55313.0,STARLINK-5313,PAYLOAD,2023-06-02 20:57:59,15.69919337,0.0003148,70.0012,51.1992,255.0068,105.0779,2.3757e-05,2.644e-05,0.0,0 STARLINK-5313,1 55313U 23010AW  23153.87360010  .00002644  00000-0  23757-4 0  9996,2 55313  70.0012  51.1992 0003148 255.0068 105.0779 15.69919337 22789,6737.265,91.724,361.251,357.009,0.0
55313.0,STARLINK-5313,PAYLOAD,2023-06-03 03:04:59,15.69915621,0.0003529,69.9984,50.4825,269.1097,90.9694,2.6232e-05,2.941e-05,0.0,0 STARLINK-5313,1 55313U 23010AW  23154.12846875  .00002941  00000-0  26232-4 0  9994,2 55313  69.9984  50.4825 0003529 269.1097  90.9694 15.69915621 22827,6737.275,91.725,361.518,356.763,0.0
55313.0,STARLINK-5313,PAYLOAD,2023-06-03 18:22:30,15.6992169,0.0003579,69.9981,48.6908,270.5169,89.5617,1.6377e-05,1.757e-05,0.0,0 STARLINK-5313,1 55313U 23010AW  23154.76563159  .00001757  00000-0  16377-4 0  9998,2 55313  69.9981  48.6908 0003579 270.5169  89.5617 15.69921690 21737,6737.258,91.724,361.534,356.712,0.0
